{
    "links": {
        "self": "http://www.neowsapp.com/rest/v1/neo/3836915?api_key=iIulBulltgU6a56xZRHN4H3l9WmuAYTsLGpBGhQ2"
    },
    "id": "3836915",
    "neo_reference_id": "3836915",
    "name": "(2018 XZ4)",
    "designation": "2018 XZ4",
    "nasa_jpl_url": "http://ssd.jpl.nasa.gov/sbdb.cgi?sstr=3836915",
    "absolute_magnitude_h": 23.3,
    "estimated_diameter": {
        "kilometers": {
            "estimated_diameter_min": 0.058150704,
            "estimated_diameter_max": 0.130028927
        },
        "meters": {
            "estimated_diameter_min": 58.1507039646,
            "estimated_diameter_max": 130.0289270043
        },
        "miles": {
            "estimated_diameter_min": 0.0361331611,
            "estimated_diameter_max": 0.0807962044
        },
        "feet": {
            "estimated_diameter_min": 190.7831555951,
            "estimated_diameter_max": 426.6041048727
        }
    },
    "is_potentially_hazardous_asteroid": false,
    "close_approach_data": [
        {
            "close_approach_date": "1927-10-17",
            "close_approach_date_full": "1927-Oct-17 13:30",
            "epoch_date_close_approach": -1331980200000,
            "relative_velocity": {
                "kilometers_per_second": "8.0097950643",
                "kilometers_per_hour": "28835.2622314284",
                "miles_per_hour": "17917.1105793006"
            },
            "miss_distance": {
                "astronomical": "0.1125848791",
                "lunar": "43.7955179699",
                "kilometers": "16842458.107567517",
                "miles": "10465418.1801530546"
            },
            "orbiting_body": "Earth"
        },
        {
            "close_approach_date": "2018-08-12",
            "close_approach_date_full": "2018-Aug-12 22:23",
            "epoch_date_close_approach": 1534112580000,
            "relative_velocity": {
                "kilometers_per_second": "10.7842106494",
                "kilometers_per_hour": "38823.1583379091",
                "miles_per_hour": "24123.2008016858"
            },
            "miss_distance": {
                "astronomical": "0.0922221377",
                "lunar": "35.8744115653",
                "kilometers": "13796235.366766699",
                "miles": "8572583.1409464862"
            },
            "orbiting_body": "Mars"
        },
        {
            "close_approach_date": "2018-12-13",
            "close_approach_date_full": "2018-Dec-13 13:41",
            "epoch_date_close_approach": 1544708460000,
            "relative_velocity": {
                "kilometers_per_second": "9.991827872",
                "kilometers_per_hour": "35970.5803392488",
                "miles_per_hour": "22350.7197669071"
            },
            "miss_distance": {
                "astronomical": "0.0306690331",
                "lunar": "11.9302538759",
                "kilometers": "4588022.026719497",
                "miles": "2850864.6910511786"
            },
            "orbiting_body": "Earth"
        }
    ],
    "orbital_data": {
        "orbit_id": "9",
        "orbit_determination_date": "2019-07-27 14:01:28",
        "first_observation_date": "2018-12-14",
        "last_observation_date": "2019-01-09",
        "data_arc_in_days": 26,
        "observations_used": 124,
        "orbit_uncertainty": "7",
        "minimum_orbit_intersection": ".0190489",
        "jupiter_tisserand_invariant": "3.925",
        "epoch_osculation": "2459000.5",
        "eccentricity": ".4737235241008898",
        "semi_major_axis": "1.794902739193389",
        "inclination": "7.136427019020355",
        "ascending_node_longitude": "84.7733595624473",
        "orbital_period": "878.334228356808",
        "perihelion_distance": ".9446150881643564",
        "perihelion_argument": "319.9490491897936",
        "aphelion_distance": "2.645190390222421",
        "perihelion_time": "2459316.100965958175",
        "mean_anomaly": "230.6456562014017",
        "mean_motion": ".4098667550204548",
        "equinox": "J2000",
        "orbit_class": {
            "orbit_class_type": "APO",
            "orbit_class_description": "Near-Earth asteroid orbits which cross the Earth’s orbit similar to that of 1862 Apollo",
            "orbit_class_range": "a (semi-major axis) > 1.0 AU; q (perihelion) < 1.017 AU"
        }
    },
    "is_sentry_object": false
}